{
  "type": "FeatureCollection",
  "features": [
    {
      "type": "Feature",
      "properties": { "name": "Москва" },
      "geometry": {
        "type": "Polygon",
        "coordinates": [
          [
            [37.318, 55.891],
            [37.372, 55.912],
            [37.428, 55.929],
            [37.505, 55.941],
            [37.580, 55.942],
            [37.655, 55.935],
            [37.720, 55.918],
            [37.780, 55.892],
            [37.842, 55.855],
            [37.875, 55.812],
            [37.882, 55.762],
            [37.868, 55.712],
            [37.835, 55.665],
            [37.790, 55.628],
            [37.725, 55.598],
            [37.655, 55.580],
            [37.575, 55.572],
            [37.495, 55.578],
            [37.420, 55.598],
            [37.360, 55.630],
            [37.318, 55.675],
            [37.295, 55.725],
            [37.290, 55.775],
            [37.300, 55.835],
            [37.318, 55.891]
          ]
        ]
      }
    }
  ]
}
